FENGYUN 1C DEB          
1 36281U 99025DXJ 17342.18034476  .00001252  00000-0  15394-2 0  9999
2 36281  99.2611  59.8124 0324645 306.5884  50.5781 13.47282244452809
